ONEWEB-0311             
1 49097U 21075Y   25211.58202978  .00000029  00000+0  41922-4 0  9998
2 49097  87.9032  69.8680 0001500  94.4227 265.7076 13.17647576191271
ONEWEB-0312             
1 49098U 21075Z   25211.90097519 -.00000015  00000+0 -70636-4 0  9999
2 49098  87.9033  69.8356 0001371  83.6732 276.4556 13.17648760192279
ONEWEB-0313             
1 49099U 21075AA  25211.90588632  .00000012  00000+0 -32625-5 0  9994
2 49099  87.9029  69.8491 0001762  87.4803 272.6530 13.17650588192282
ONEWEB-0314             
1 49100U 21075AB  25211.56854707  .00000011  00000+0 -56125-5 0  9998
2 49100  87.9038  69.8492 0001364  85.3671 274.7616 13.17648893191210
ONEWEB-0315             
1 49101U 21075AC  25211.56479668  .00000301  00000+0  80115-3 0  9993
2 49101  87.8854  54.5830 0001697  99.5098 260.6222 13.12442780192986
ONEWEB-0316             
1 49102U 21075AD  25211.82189093 -.00000002  00000+0 -37977-4 0  9992
2 49102  87.9125  39.3045 0001797  96.1079 264.0258 13.18686317195860
ONEWEB-0317             
1 49103U 21075AE  25211.86325737  .00000416  00000+0  11217-2 0  9998
2 49103  87.8850  54.5385 0001912  60.8028 299.3292 13.12442890194039
ONEWEB-0318             
1 49104U 21075AF  25211.59096002  .00000035  00000+0  55635-4 0  9990
2 49104  87.9126  39.3366 0001754  97.3209 262.8122 13.18686697194787
ONEWEB-0319             
1 49105U 21075AG  25211.58372336  .00000086  00000+0  18717-3 0  9992
2 49105  87.9034  69.8925 0001518  96.3272 263.8033 13.17649600191255
ONEWEB-0323             
1 49106U 21075AH  25211.62481023  .00000411  00000+0  11083-2 0  9992
2 49106  87.8851  54.5718 0001379 110.3619 249.7657 13.12442892192378
ONEWEB-0329             
1 49107U 21075AJ  25211.89589558  .00000063  00000+0  12917-3 0  9995
2 49107  87.9031  69.8347 0001527  88.3272 271.8034 13.17649610192266
ONEWEB-0330             
1 49108U 21075AK  25211.59325317 -.00000001  00000+0 -36542-4 0  9999
2 49108  87.9029  69.8975 0001481  79.5291 280.6007 13.17726177191275
ONEWEB-0292             
1 49186U 21083A   25211.84846910  .00000346  00000+0  91379-3 0  9997
2 49186  87.8969  24.1045 0001768  97.7497 262.3833 13.13469814190038
ONEWEB-0303             
1 49187U 21083B   25211.51176960  .00000049  00000+0  92204-4 0  9992
2 49187  87.9124  39.3532 0001740  94.9917 265.1414 13.18684718187587
ONEWEB-0306             
1 49188U 21083C   25211.57775052  .00000008  00000+0 -12038-4 0  9999
2 49188  87.9126  39.3253 0001861  82.7956 277.3388 13.18684497187637
ONEWEB-0307             
1 49189U 21083D   25211.53784586  .00000486  00000+0  12964-2 0  9993
2 49189  87.8955  24.1696 0001662  81.5732 278.5585 13.13469545188709
ONEWEB-0320             
1 49190U 21083E   25211.88785786  .00000049  00000+0  91154-4 0  9991
2 49190  87.9125  39.2922 0001763  89.8251 270.3083 13.18686308188918
