[{"OBJECT_NAME":"ONEWEB-0311","OBJECT_ID":"2021-075Y","EPOCH":"2025-07-30T13:58:07.372992","MEAN_MOTION":13.17647576,"ECCENTRICITY":0.00015,"INCLINATION":87.9032,"RA_OF_ASC_NODE":69.868,"ARG_OF_PERICENTER":94.4227,"MEAN_ANOMALY":265.7076,"EPHEMERIS_TYPE":0,"CLASSIFICATION_TYPE":"U","NORAD_CAT_ID":49097,"ELEMENT_SET_NO":999,"REV_AT_EPOCH":19127,"BSTAR":4.1922e-5,"MEAN_MOTION_DOT":2.9e-7,"MEAN_MOTION_DDOT":0},{"OBJECT_NAME":"ONEWEB-0312","OBJECT_ID":"2021-075Z","EPOCH":"2025-07-30T21:37:24.256416","MEAN_MOTION":13.1764876,"ECCENTRICITY":0.0001371,"INCLINATION":87.9033,"RA_OF_ASC_NODE":69.8356,"ARG_OF_PERICENTER":83.6732,"MEAN_ANOMALY":276.4556,"EPHEMERIS_TYPE":0,"CLASSIFICATION_TYPE":"U","NORAD_CAT_ID":49098,"ELEMENT_SET_NO":999,"REV_AT_EPOCH":19227,"BSTAR":-7.0636e-5,"MEAN_MOTION_DOT":-1.5e-7,"MEAN_MOTION_DDOT":0},{"OBJECT_NAME":"ONEWEB-0313","OBJECT_ID":"2021-075AA","EPOCH":"2025-07-30T21:44:28.578048","MEAN_MOTION":13.17650588,"ECCENTRICITY":0.0001762,"INCLINATION":87.9029,"RA_OF_ASC_NODE":69.8491,"ARG_OF_PERICENTER":87.4803,"MEAN_ANOMALY":272.653,"EPHEMERIS_TYPE":0,"CLASSIFICATION_TYPE":"U","NORAD_CAT_ID":49099,"ELEMENT_SET_NO":999,"REV_AT_EPOCH":19228,"BSTAR":-3.2625e-6,"MEAN_MOTION_DOT":1.2e-7,"MEAN_MOTION_DDOT":0},{"OBJECT_NAME":"ONEWEB-0314","OBJECT_ID":"2021-075AB","EPOCH":"2025-07-30T13:38:42.466848","MEAN_MOTION":13.17648893,"ECCENTRICITY":0.0001364,"INCLINATION":87.9038,"RA_OF_ASC_NODE":69.8492,"ARG_OF_PERICENTER":85.3671,"MEAN_ANOMALY":274.7616,"EPHEMERIS_TYPE":0,"CLASSIFICATION_TYPE":"U","NORAD_CAT_ID":49100,"ELEMENT_SET_NO":999,"REV_AT_EPOCH":19121,"BSTAR":-5.6125e-6,"MEAN_MOTION_DOT":1.1e-7,"MEAN_MOTION_DDOT":0},{"OBJECT_NAME":"ONEWEB-0315","OBJECT_ID":"2021-075AC","EPOCH":"2025-07-30T13:33:18.433152","MEAN_MOTION":13.1244278,"ECCENTRICITY":0.0001697,"INCLINATION":87.8854,"RA_OF_ASC_NODE":54.583,"ARG_OF_PERICENTER":99.5098,"MEAN_ANOMALY":260.6222,"EPHEMERIS_TYPE":0,"CLASSIFICATION_TYPE":"U","NORAD_CAT_ID":49101,"ELEMENT_SET_NO":999,"REV_AT_EPOCH":19298,"BSTAR":0.00080115,"MEAN_MOTION_DOT":3.01e-6,"MEAN_MOTION_DDOT":0},{"OBJECT_NAME":"ONEWEB-0316","OBJECT_ID":"2021-075AD","EPOCH":"2025-07-30T19:43:31.376352","MEAN_MOTION":13.18686317,"ECCENTRICITY":0.0001797,"INCLINATION":87.9125,"RA_OF_ASC_NODE":39.3045,"ARG_OF_PERICENTER":96.1079,"MEAN_ANOMALY":264.0258,"EPHEMERIS_TYPE":0,"CLASSIFICATION_TYPE":"U","NORAD_CAT_ID":49102,"ELEMENT_SET_NO":999,"REV_AT_EPOCH":19586,"BSTAR":-3.7977e-5,"MEAN_MOTION_DOT":-2.0e-8,"MEAN_MOTION_DDOT":0},{"OBJECT_NAME":"ONEWEB-0317","OBJECT_ID":"2021-075AE","EPOCH":"2025-07-30T20:43:05.436768","MEAN_MOTION":13.1244289,"ECCENTRICITY":0.0001912,"INCLINATION":87.885,"RA_OF_ASC_NODE":54.5385,"ARG_OF_PERICENTER":60.8028,"MEAN_ANOMALY":299.3292,"EPHEMERIS_TYPE":0,"CLASSIFICATION_TYPE":"U","NORAD_CAT_ID":49103,"ELEMENT_SET_NO":999,"REV_AT_EPOCH":19403,"BSTAR":0.0011217,"MEAN_MOTION_DOT":4.16e-6,"MEAN_MOTION_DDOT":0},{"OBJECT_NAME":"ONEWEB-0318","OBJECT_ID":"2021-075AF","EPOCH":"2025-07-30T14:10:58.945728","MEAN_MOTION":13.18686697,"ECCENTRICITY":0.0001754,"INCLINATION":87.9126,"RA_OF_ASC_NODE":39.3366,"ARG_OF_PERICENTER":97.3209,"MEAN_ANOMALY":262.8122,"EPHEMERIS_TYPE":0,"CLASSIFICATION_TYPE":"U","NORAD_CAT_ID":49104,"ELEMENT_SET_NO":999,"REV_AT_EPOCH":19478,"BSTAR":5.5635e-5,"MEAN_MOTION_DOT":3.5e-7,"MEAN_MOTION_DDOT":0},{"OBJECT_NAME":"ONEWEB-0319","OBJECT_ID":"2021-075AG","EPOCH":"2025-07-30T14:00:33.698304","MEAN_MOTION":13.176496,"ECCENTRICITY":0.0001518,"INCLINATION":87.9034,"RA_OF_ASC_NODE":69.8925,"ARG_OF_PERICENTER":96.3272,"MEAN_ANOMALY":263.8033,"EPHEMERIS_TYPE":0,"CLASSIFICATION_TYPE":"U","NORAD_CAT_ID":49105,"ELEMENT_SET_NO":999,"REV_AT_EPOCH":19125,"BSTAR":0.00018717,"MEAN_MOTION_DOT":8.6e-7,"MEAN_MOTION_DDOT":0},{"OBJECT_NAME":"ONEWEB-0323","OBJECT_ID":"2021-075AH","EPOCH":"2025-07-30T14:59:43.603872","MEAN_MOTION":13.12442892,"ECCENTRICITY":0.0001379,"INCLINATION":87.8851,"RA_OF_ASC_NODE":54.5718,"ARG_OF_PERICENTER":110.3619,"MEAN_ANOMALY":249.7657,"EPHEMERIS_TYPE":0,"CLASSIFICATION_TYPE":"U","NORAD_CAT_ID":49106,"ELEMENT_SET_NO":999,"REV_AT_EPOCH":19237,"BSTAR":0.0011083,"MEAN_MOTION_DOT":4.11e-6,"MEAN_MOTION_DDOT":0},{"OBJECT_NAME":"ONEWEB-0329","OBJECT_ID":"2021-075AJ","EPOCH":"2025-07-30T21:30:05.378112","MEAN_MOTION":13.1764961,"ECCENTRICITY":0.0001527,"INCLINATION":87.9031,"RA_OF_ASC_NODE":69.8347,"ARG_OF_PERICENTER":88.3272,"MEAN_ANOMALY":271.8034,"EPHEMERIS_TYPE":0,"CLASSIFICATION_TYPE":"U","NORAD_CAT_ID":49107,"ELEMENT_SET_NO":999,"REV_AT_EPOCH":19226,"BSTAR":0.00012917,"MEAN_MOTION_DOT":6.3e-7,"MEAN_MOTION_DDOT":0},{"OBJECT_NAME":"ONEWEB-0330","OBJECT_ID":"2021-075AK","EPOCH":"2025-07-30T14:14:17.073888","MEAN_MOTION":13.17726177,"ECCENTRICITY":0.0001481,"INCLINATION":87.9029,"RA_OF_ASC_NODE":69.8975,"ARG_OF_PERICENTER":79.5291,"MEAN_ANOMALY":280.6007,"EPHEMERIS_TYPE":0,"CLASSIFICATION_TYPE":"U","NORAD_CAT_ID":49108,"ELEMENT_SET_NO":999,"REV_AT_EPOCH":19127,"BSTAR":-3.6542e-5,"MEAN_MOTION_DOT":-1.0e-8,"MEAN_MOTION_DDOT":0},{"OBJECT_NAME":"ONEWEB-0292","OBJECT_ID":"2021-083A","EPOCH":"2025-07-30T20:21:47.730240","MEAN_MOTION":13.13469814,"ECCENTRICITY":0.0001768,"INCLINATION":87.8969,"RA_OF_ASC_NODE":24.1045,"ARG_OF_PERICENTER":97.7497,"MEAN_ANOMALY":262.3833,"EPHEMERIS_TYPE":0,"CLASSIFICATION_TYPE":"U","NORAD_CAT_ID":49186,"ELEMENT_SET_NO":999,"REV_AT_EPOCH":19003,"BSTAR":0.00091379,"MEAN_MOTION_DOT":3.46e-6,"MEAN_MOTION_DDOT":0},{"OBJECT_NAME":"ONEWEB-0303","OBJECT_ID":"2021-083B","EPOCH":"2025-07-30T12:16:56.893440","MEAN_MOTION":13.18684718,"ECCENTRICITY":0.000174,"INCLINATION":87.9124,"RA_OF_ASC_NODE":39.3532,"ARG_OF_PERICENTER":94.9917,"MEAN_ANOMALY":265.1414,"EPHEMERIS_TYPE":0,"CLASSIFICATION_TYPE":"U","NORAD_CAT_ID":49187,"ELEMENT_SET_NO":999,"REV_AT_EPOCH":18758,"BSTAR":9.2204e-5,"MEAN_MOTION_DOT":4.9e-7,"MEAN_MOTION_DDOT":0},{"OBJECT_NAME":"ONEWEB-0306","OBJECT_ID":"2021-083C","EPOCH":"2025-07-30T13:51:57.644928","MEAN_MOTION":13.18684497,"ECCENTRICITY":0.0001861,"INCLINATION":87.9126,"RA_OF_ASC_NODE":39.3253,"ARG_OF_PERICENTER":82.7956,"MEAN_ANOMALY":277.3388,"EPHEMERIS_TYPE":0,"CLASSIFICATION_TYPE":"U","NORAD_CAT_ID":49188,"ELEMENT_SET_NO":999,"REV_AT_EPOCH":18763,"BSTAR":-1.2038e-5,"MEAN_MOTION_DOT":8.0e-8,"MEAN_MOTION_DDOT":0},{"OBJECT_NAME":"ONEWEB-0307","OBJECT_ID":"2021-083D","EPOCH":"2025-07-30T12:54:29.882304","MEAN_MOTION":13.13469545,"ECCENTRICITY":0.0001662,"INCLINATION":87.8955,"RA_OF_ASC_NODE":24.1696,"ARG_OF_PERICENTER":81.5732,"MEAN_ANOMALY":278.5585,"EPHEMERIS_TYPE":0,"CLASSIFICATION_TYPE":"U","NORAD_CAT_ID":49189,"ELEMENT_SET_NO":999,"REV_AT_EPOCH":18870,"BSTAR":0.0012964,"MEAN_MOTION_DOT":4.86e-6,"MEAN_MOTION_DDOT":0},{"OBJECT_NAME":"ONEWEB-0320","OBJECT_ID":"2021-083E","EPOCH":"2025-07-30T21:18:30.919104","MEAN_MOTION":13.18686308,"ECCENTRICITY":0.0001763,"INCLINATION":87.9125,"RA_OF_ASC_NODE":39.2922,"ARG_OF_PERICENTER":89.8251,"MEAN_ANOMALY":270.3083,"EPHEMERIS_TYPE":0,"CLASSIFICATION_TYPE":"U","NORAD_CAT_ID":49190,"ELEMENT_SET_NO":999,"REV_AT_EPOCH":18891,"BSTAR":9.1154e-5,"MEAN_MOTION_DOT":4.9e-7,"MEAN_MOTION_DDOT":0}]
